{
"type": "FeatureCollection",
"name": "sentinel1_ENL_samples",
"crs": { "type": "name", "properties": { "name": "urn:ogc:def:crs:EPSG::32722" } },
"features": [
{ "type": "Feature", "properties": { }, "geometry": { "type": "Polygon", "coordinates": [ [ [ 819996.036357144475915, 8264570.24388587102294 ], [ 820196.036357144475915, 8264570.24388587102294 ], [ 820196.036357144475915, 8264420.24388587102294 ], [ 819996.036357144475915, 8264420.24388587102294 ], [ 819996.036357144475915, 8264570.24388587102294 ] ] ] } },
{ "type": "Feature", "properties": { }, "geometry": { "type": "Polygon", "coordinates": [ [ [ 821618.825872289715335, 8264894.097758741118014 ], [ 821818.825872289715335, 8264894.097758741118014 ], [ 821818.825872289715335, 8264744.097758741118014 ], [ 821618.825872289715335, 8264744.097758741118014 ], [ 821618.825872289715335, 8264894.097758741118014 ] ] ] } },
{ "type": "Feature", "properties": { }, "geometry": { "type": "Polygon", "coordinates": [ [ [ 824505.349521788884886, 8265203.871028443798423 ], [ 824705.349521788884886, 8265203.871028443798423 ], [ 824705.349521788884886, 8265053.871028443798423 ], [ 824505.349521788884886, 8265053.871028443798423 ], [ 824505.349521788884886, 8265203.871028443798423 ] ] ] } },
{ "type": "Feature", "properties": { }, "geometry": { "type": "Polygon", "coordinates": [ [ [ 823216.974331890465692, 8265203.871028443798423 ], [ 823416.974331890465692, 8265203.871028443798423 ], [ 823416.974331890465692, 8265053.871028443798423 ], [ 823216.974331890465692, 8265053.871028443798423 ], [ 823216.974331890465692, 8265203.871028443798423 ] ] ] } },
{ "type": "Feature", "properties": { }, "geometry": { "type": "Polygon", "coordinates": [ [ [ 825772.603806935017928, 8265115.867258647456765 ], [ 825972.603806935017928, 8265115.867258647456765 ], [ 825972.603806935017928, 8264965.867258647456765 ], [ 825772.603806935017928, 8264965.867258647456765 ], [ 825772.603806935017928, 8265115.867258647456765 ] ] ] } },
{ "type": "Feature", "properties": { }, "geometry": { "type": "Polygon", "coordinates": [ [ [ 835678.308135825907812, 8256551.340381531044841 ], [ 835878.308135825907812, 8256551.340381531044841 ], [ 835878.308135825907812, 8256401.340381531044841 ], [ 835678.308135825907812, 8256401.340381531044841 ], [ 835678.308135825907812, 8256551.340381531044841 ] ] ] } },
{ "type": "Feature", "properties": { }, "geometry": { "type": "Polygon", "coordinates": [ [ [ 838290.260023543727584, 8253745.780200256034732 ], [ 838490.260023543727584, 8253745.780200256034732 ], [ 838490.260023543727584, 8253595.780200256034732 ], [ 838290.260023543727584, 8253595.780200256034732 ], [ 838290.260023543727584, 8253745.780200256034732 ] ] ] } },
{ "type": "Feature", "properties": { }, "geometry": { "type": "Polygon", "coordinates": [ [ [ 840398.830347995273769, 8254791.264985498972237 ], [ 840598.830347995273769, 8254791.264985498972237 ], [ 840598.830347995273769, 8254641.264985498972237 ], [ 840398.830347995273769, 8254641.264985498972237 ], [ 840398.830347995273769, 8254791.264985498972237 ] ] ] } },
{ "type": "Feature", "properties": { }, "geometry": { "type": "Polygon", "coordinates": [ [ [ 840814.208141459850594, 8252643.973002335987985 ], [ 841014.208141459850594, 8252643.973002335987985 ], [ 841014.208141459850594, 8252493.973002335987985 ], [ 840814.208141459850594, 8252493.973002335987985 ], [ 840814.208141459850594, 8252643.973002335987985 ] ] ] } },
{ "type": "Feature", "properties": { }, "geometry": { "type": "Polygon", "coordinates": [ [ [ 838124.812936316709965, 8252643.973002335987985 ], [ 838324.812936316709965, 8252643.973002335987985 ], [ 838324.812936316709965, 8252493.973002335987985 ], [ 838124.812936316709965, 8252493.973002335987985 ], [ 838124.812936316709965, 8252643.973002335987985 ] ] ] } },
{ "type": "Feature", "properties": { }, "geometry": { "type": "Polygon", "coordinates": [ [ [ 838124.812936316709965, 8247581.996163337491453 ], [ 838324.812936316709965, 8247581.996163337491453 ], [ 838324.812936316709965, 8247431.996163337491453 ], [ 838124.812936316709965, 8247431.996163337491453 ], [ 838124.812936316709965, 8247581.996163337491453 ] ] ] } },
{ "type": "Feature", "properties": { }, "geometry": { "type": "Polygon", "coordinates": [ [ [ 799125.062310924869962, 8259202.013927975669503 ], [ 799325.062310924869962, 8259202.013927975669503 ], [ 799325.062310924869962, 8259052.013927975669503 ], [ 799125.062310924869962, 8259052.013927975669503 ], [ 799125.062310924869962, 8259202.013927975669503 ] ] ] } },
{ "type": "Feature", "properties": { }, "geometry": { "type": "Polygon", "coordinates": [ [ [ 799350.351961617940105, 8256927.996516296640038 ], [ 799550.351961617940105, 8256927.996516296640038 ], [ 799550.351961617940105, 8256777.996516296640038 ], [ 799350.351961617940105, 8256777.996516296640038 ], [ 799350.351961617940105, 8256927.996516296640038 ] ] ] } },
{ "type": "Feature", "properties": { }, "geometry": { "type": "Polygon", "coordinates": [ [ [ 800973.141476764227264, 8256987.839079761877656 ], [ 801173.141476764227264, 8256987.839079761877656 ], [ 801173.141476764227264, 8256837.839079761877656 ], [ 800973.141476764227264, 8256837.839079761877656 ], [ 800973.141476764227264, 8256987.839079761877656 ] ] ] } },
{ "type": "Feature", "properties": { }, "geometry": { "type": "Polygon", "coordinates": [ [ [ 798521.356450084364042, 8255446.013032836839557 ], [ 798721.356450084364042, 8255446.013032836839557 ], [ 798721.356450084364042, 8255296.013032836839557 ], [ 798521.356450084364042, 8255296.013032836839557 ], [ 798521.356450084364042, 8255446.013032836839557 ] ] ] } },
{ "type": "Feature", "properties": { }, "geometry": { "type": "Polygon", "coordinates": [ [ [ 797718.762069491785951, 8254523.73352531157434 ], [ 797918.762069491785951, 8254523.73352531157434 ], [ 797918.762069491785951, 8254373.73352531157434 ], [ 797718.762069491785951, 8254373.73352531157434 ], [ 797718.762069491785951, 8254523.73352531157434 ] ] ] } },
{ "type": "Feature", "properties": { }, "geometry": { "type": "Polygon", "coordinates": [ [ [ 799014.177560975076631, 8257952.360396791249514 ], [ 799214.177560975076631, 8257952.360396791249514 ], [ 799214.177560975076631, 8257802.360396791249514 ], [ 799014.177560975076631, 8257802.360396791249514 ], [ 799014.177560975076631, 8257952.360396791249514 ] ] ] } },
{ "type": "Feature", "properties": { }, "geometry": { "type": "Polygon", "coordinates": [ [ [ 840476.273665420594625, 8250510.761622339487076 ], [ 840676.273665420594625, 8250510.761622339487076 ], [ 840676.273665420594625, 8250360.761622339487076 ], [ 840476.273665420594625, 8250360.761622339487076 ], [ 840476.273665420594625, 8250510.761622339487076 ] ] ] } },
{ "type": "Feature", "properties": { }, "geometry": { "type": "Polygon", "coordinates": [ [ [ 840060.895871955784969, 8249144.943115014582872 ], [ 840260.895871955784969, 8249144.943115014582872 ], [ 840260.895871955784969, 8248994.943115014582872 ], [ 840060.895871955784969, 8248994.943115014582872 ], [ 840060.895871955784969, 8249144.943115014582872 ] ] ] } },
{ "type": "Feature", "properties": { }, "geometry": { "type": "Polygon", "coordinates": [ [ [ 836090.165778495837003, 8248166.34119481779635 ], [ 836290.165778495837003, 8248166.34119481779635 ], [ 836290.165778495837003, 8248016.34119481779635 ], [ 836090.165778495837003, 8248016.34119481779635 ], [ 836090.165778495837003, 8248166.34119481779635 ] ] ] } }
]
}
